start=new Date('2021-09-20T00:00:00.000Z').valueOf();
sats=[{"FILE":"3120378","LAUNCH_DATE":"2020-06-04","APOAPSIS":"548.681","REF_FRAME":"TEME","MEAN_MOTION_DOT":"-0.00000424","PERIOD":"95.593","EPOCH":"2021-09-19T21:49:15.916800","TIME_SYSTEM":"UTC","INCLINATION":"53.0548","MEAN_ELEMENT_THEORY":"SGP4","ECCENTRICITY":"0.00020890","MEAN_MOTION":"15.06393082","ELEMENT_SET_NO":"999","ARG_OF_PERICENTER":"68.5289","CENTER_NAME":"EARTH","OBJECT_TYPE":"PAYLOAD","NORAD_CAT_ID":"45700","MEAN_ANOMALY":"291.5923","GP_ID":"185055143","MEAN_MOTION_DDOT":"0.0000000000000","DECAY_DATE":null,"OBJECT_NAME":"STARLINK-1400","TLE_LINE2":"2 45700  53.0548 161.9741 0002089  68.5289 291.5923 15.06393082 73209","RCS_SIZE":"LARGE","OBJECT_ID":"2020-035AV","PERIAPSIS":"545.788","SITE":"AFETR","SEMIMAJOR_AXIS":"6925.370","BSTAR":"-0.00000957310000","RA_OF_ASC_NODE":"161.9741","CLASSIFICATION_TYPE":"U","EPHEMERIS_TYPE":"0","REV_AT_EPOCH":"7320","COUNTRY_CODE":"US","TLE_LINE1":"1 45700U 20035AV  21262.90921200 -.00000424  00000-0 -95731-5 0  9994"},{"OBJECT_TYPE":"PAYLOAD","NORAD_CAT_ID":"45701","MEAN_MOTION_DDOT":"0.0000000000000","GP_ID":"185055895","DECAY_DATE":null,"MEAN_ANOMALY":"289.8252","OBJECT_NAME":"STARLINK-1403","SITE":"AFETR","RA_OF_ASC_NODE":"162.1379","SEMIMAJOR_AXIS":"6925.338","BSTAR":"0.00008644100000","RCS_SIZE":"LARGE","TLE_LINE2":"2 45701  53.0528 162.1379 0002031  70.2956 289.8252 15.06403451 73191","PERIAPSIS":"545.796","OBJECT_ID":"2020-035AW","CLASSIFICATION_TYPE":"U","REV_AT_EPOCH":"7319","EPHEMERIS_TYPE":"0","COUNTRY_CODE":"US","TLE_LINE1":"1 45701U 20035AW  21262.87235247  .00001006  00000-0  86441-4 0  9992","LAUNCH_DATE":"2020-06-04","FILE":"3120378","REF_FRAME":"TEME","MEAN_MOTION_DOT":"0.00001006","APOAPSIS":"548.610","TIME_SYSTEM":"UTC","PERIOD":"95.592","EPOCH":"2021-09-19T20:56:11.253408","ECCENTRICITY":"0.00020310","INCLINATION":"53.0528","MEAN_ELEMENT_THEORY":"SGP4","MEAN_MOTION":"15.06403451","ELEMENT_SET_NO":"999","CENTER_NAME":"EARTH","ARG_OF_PERICENTER":"70.2956"},{"OBJECT_NAME":"STARLINK-1405","OBJECT_ID":"2020-035AX","PERIAPSIS":"545.619","RCS_SIZE":"LARGE","TLE_LINE2":"2 45702  53.0540 164.0057 0002290  64.0564 296.0660 15.06402957 73130","SITE":"AFETR","SEMIMAJOR_AXIS":"6925.339","RA_OF_ASC_NODE":"164.0057","BSTAR":"0.00009915100000","NORAD_CAT_ID":"45702","OBJECT_TYPE":"PAYLOAD","MEAN_ANOMALY":"296.0660","DECAY_DATE":null,"GP_ID":"185023601","MEAN_MOTION_DDOT":"0.0000000000000","COUNTRY_CODE":"US","TLE_LINE1":"1 45702U 20035AX  21262.45583920  .00001195  00000-0  99151-4 0  9992","CLASSIFICATION_TYPE":"U","EPHEMERIS_TYPE":"0","REV_AT_EPOCH":"7313","EPOCH":"2021-09-19T10:56:24.506880","PERIOD":"95.592","TIME_SYSTEM":"UTC","FILE":"3120015","LAUNCH_DATE":"2020-06-04","APOAPSIS":"548.790","MEAN_MOTION_DOT":"0.00001195","REF_FRAME":"TEME","ELEMENT_SET_NO":"999","ARG_OF_PERICENTER":"64.0564","CENTER_NAME":"EARTH","MEAN_ELEMENT_THEORY":"SGP4","INCLINATION":"53.0540","ECCENTRICITY":"0.00022900","MEAN_MOTION":"15.06402957"},{"CLASSIFICATION_TYPE":"U","EPHEMERIS_TYPE":"0","REV_AT_EPOCH":"7320","COUNTRY_CODE":"US","TLE_LINE1":"1 45703U 20035AY  21262.91658919  .00001163  00000-0  96951-4 0  9995","NORAD_CAT_ID":"45703","OBJECT_TYPE":"PAYLOAD","MEAN_ANOMALY":"287.1676","GP_ID":"185054394","MEAN_MOTION_DDOT":"0.0000000000000","DECAY_DATE":null,"OBJECT_NAME":"STARLINK-1407","RCS_SIZE":"LARGE","TLE_LINE2":"2 45703  53.0563 161.9385 0001816  72.9511 287.1676 15.06393488 73203","PERIAPSIS":"545.976","OBJECT_ID":"2020-035AY","SITE":"AFETR","BSTAR":"0.00009695100000","SEMIMAJOR_AXIS":"6925.369","RA_OF_ASC_NODE":"161.9385","INCLINATION":"53.0563","MEAN_ELEMENT_THEORY":"SGP4","ECCENTRICITY":"0.00018160","MEAN_MOTION":"15.06393488","ELEMENT_SET_NO":"999","CENTER_NAME":"EARTH","ARG_OF_PERICENTER":"72.9511","FILE":"3120378","LAUNCH_DATE":"2020-06-04","APOAPSIS":"548.491","REF_FRAME":"TEME","MEAN_MOTION_DOT":"0.00001163","PERIOD":"95.593","EPOCH":"2021-09-19T21:59:53.306016","TIME_SYSTEM":"UTC"},{"NORAD_CAT_ID":"45704","OBJECT_TYPE":"PAYLOAD","DECAY_DATE":null,"GP_ID":"185024603","MEAN_MOTION_DDOT":"0.0000000000000","MEAN_ANOMALY":"273.8528","OBJECT_NAME":"STARLINK-1409","RA_OF_ASC_NODE":"193.5876","SITE":"AFETR","SEMIMAJOR_AXIS":"6925.367","BSTAR":"-0.00004960900000","OBJECT_ID":"2020-035AZ","PERIAPSIS":"546.446","RCS_SIZE":"LARGE","TLE_LINE2":"2 45704  53.0529 193.5876 0001134  86.2591 273.8528 15.06394049 72730","CLASSIFICATION_TYPE":"U","REV_AT_EPOCH":"7273","EPHEMERIS_TYPE":"0","COUNTRY_CODE":"US","TLE_LINE1":"1 45704U 20035AZ  21262.54891282 -.00001020  00000-0 -49609-4 0  9999","LAUNCH_DATE":"2020-06-04","FILE":"3120015","MEAN_MOTION_DOT":"-0.00001020","REF_FRAME":"TEME","APOAPSIS":"548.017","TIME_SYSTEM":"UTC","EPOCH":"2021-09-19T13:10:26.067648","PERIOD":"95.593","ECCENTRICITY":"0.00011340","MEAN_ELEMENT_THEORY":"SGP4","INCLINATION":"53.0529","MEAN_MOTION":"15.06394049","ELEMENT_SET_NO":"999","CENTER_NAME":"EARTH","ARG_OF_PERICENTER":"86.2591"},{"LAUNCH_DATE":"2020-06-04","FILE":"3120378","REF_FRAME":"TEME","MEAN_MOTION_DOT":"0.00001253","APOAPSIS":"548.629","TIME_SYSTEM":"UTC","PERIOD":"95.592","EPOCH":"2021-09-19T18:28:53.240160","ECCENTRICITY":"0.00020760","INCLINATION":"53.0555","MEAN_ELEMENT_THEORY":"SGP4","MEAN_MOTION":"15.06407171","ELEMENT_SET_NO":"999","ARG_OF_PERICENTER":"58.0229","CENTER_NAME":"EARTH","OBJECT_TYPE":"PAYLOAD","NORAD_CAT_ID":"45705","MEAN_MOTION_DDOT":"0.0000000000000","GP_ID":"185055396","DECAY_DATE":null,"MEAN_ANOMALY":"302.0962","OBJECT_NAME":"STARLINK-1410","SITE":"AFETR","BSTAR":"0.00010301000000","SEMIMAJOR_AXIS":"6925.327","RA_OF_ASC_NODE":"192.6032","TLE_LINE2":"2 45705  53.0555 192.6032 0002076  58.0229 302.0962 15.06407171 72755","RCS_SIZE":"LARGE","PERIAPSIS":"545.754","OBJECT_ID":"2020-035BA","CLASSIFICATION_TYPE":"U","REV_AT_EPOCH":"7275","EPHEMERIS_TYPE":"0","COUNTRY_CODE":"US","TLE_LINE1":"1 45705U 20035BA  21262.77006065  .00001253  00000-0  10301-3 0  9994"},{"MEAN_ELEMENT_THEORY":"SGP4","INCLINATION":"53.0538","ECCENTRICITY":"0.00020400","MEAN_MOTION":"15.06394826","ELEMENT_SET_NO":"999","CENTER_NAME":"EARTH","ARG_OF_PERICENTER":"70.5494","FILE":"3120378","LAUNCH_DATE":"2020-06-04","APOAPSIS":"548.642","MEAN_MOTION_DOT":"-0.00000509","REF_FRAME":"TEME","EPOCH":"2021-09-19T21:28:02.358336","PERIOD":"95.592","TIME_SYSTEM":"UTC","CLASSIFICATION_TYPE":"U","EPHEMERIS_TYPE":"0","REV_AT_EPOCH":"7319","COUNTRY_CODE":"US","TLE_LINE1":"1 45706U 20035BB  21262.89447174 -.00000509  00000-0 -15267-4 0  9990","OBJECT_TYPE":"PAYLOAD","NORAD_CAT_ID":"45706","MEAN_ANOMALY":"289.5715","DECAY_DATE":null,"GP_ID":"185054647","MEAN_MOTION_DDOT":"0.0000000000000","OBJECT_NAME":"STARLINK-1411","OBJECT_ID":"2020-035BB","PERIAPSIS":"545.817","RCS_SIZE":"LARGE","TLE_LINE2":"2 45706  53.0538 162.0394 0002040  70.5494 289.5715 15.06394826 73199","SITE":"AFETR","SEMIMAJOR_AXIS":"6925.364","BSTAR":"-0.00001526700000","RA_OF_ASC_NODE":"162.0394"},{"OBJECT_NAME":"STARLINK-1412","RCS_SIZE":"LARGE","TLE_LINE2":"2 45707  53.0541 162.0550 0001862  67.0914 293.0271 15.06395739 73200","PERIAPSIS":"545.937","OBJECT_ID":"2020-035BC","SEMIMAJOR_AXIS":"6925.362","SITE":"AFETR","RA_OF_ASC_NODE":"162.0550","BSTAR":"0.00008453400000","NORAD_CAT_ID":"45707","OBJECT_TYPE":"PAYLOAD","MEAN_ANOMALY":"293.0271","GP_ID":"185054894","MEAN_MOTION_DDOT":"0.0000000000000","DECAY_DATE":null,"COUNTRY_CODE":"US","TLE_LINE1":"1 45707U 20035BC  21262.89077885  .00000978  00000-0  84534-4 0  9990","CLASSIFICATION_TYPE":"U","EPHEMERIS_TYPE":"0","REV_AT_EPOCH":"7320","PERIOD":"95.592","EPOCH":"2021-09-19T21:22:43.292640","TIME_SYSTEM":"UTC","FILE":"3120378","LAUNCH_DATE":"2020-06-04","APOAPSIS":"548.516","REF_FRAME":"TEME","MEAN_MOTION_DOT":"0.00000978","ELEMENT_SET_NO":"999","CENTER_NAME":"EARTH","ARG_OF_PERICENTER":"67.0914","INCLINATION":"53.0541","MEAN_ELEMENT_THEORY":"SGP4","ECCENTRICITY":"0.00018620","MEAN_MOTION":"15.06395739"},{"TIME_SYSTEM":"UTC","EPOCH":"2021-09-19T20:45:34.379136","PERIOD":"95.592","LAUNCH_DATE":"2020-06-04","FILE":"3120378","MEAN_MOTION_DOT":"0.00001081","REF_FRAME":"TEME","APOAPSIS":"548.527","ELEMENT_SET_NO":"999","ARG_OF_PERICENTER":"72.5569","CENTER_NAME":"EARTH","ECCENTRICITY":"0.00018770","MEAN_ELEMENT_THEORY":"SGP4","INCLINATION":"53.0554","MEAN_MOTION":"15.06395637","OBJECT_NAME":"STARLINK-1418","SEMIMAJOR_AXIS":"6925.362","SITE":"AFETR","RA_OF_ASC_NODE":"162.1761","BSTAR":"0.00009146600000","PERIAPSIS":"545.927","OBJECT_ID":"2020-035BD","RCS_SIZE":"LARGE","TLE_LINE2":"2 45708  53.0554 162.1761 0001877  72.5569 287.5625 15.06395637 73201","OBJECT_TYPE":"PAYLOAD","NORAD_CAT_ID":"45708","DECAY_DATE":null,"GP_ID":"185055144","MEAN_MOTION_DDOT":"0.0000000000000","MEAN_ANOMALY":"287.5625","COUNTRY_CODE":"US","TLE_LINE1":"1 45708U 20035BD  21262.86498124  .00001081  00000-0  91466-4 0  9999","CLASSIFICATION_TYPE":"U","REV_AT_EPOCH":"7320","EPHEMERIS_TYPE":"0"},{"COUNTRY_CODE":"US","TLE_LINE1":"1 45709U 20035BE  21262.90184619  .00001067  00000-0  90522-4 0  9992","CLASSIFICATION_TYPE":"U","REV_AT_EPOCH":"7316","EPHEMERIS_TYPE":"0","OBJECT_NAME":"STARLINK-1421","SEMIMAJOR_AXIS":"6925.361","SITE":"AFETR","RA_OF_ASC_NODE":"162.0026","BSTAR":"0.00009052200000","TLE_LINE2":"2 45709  53.0530 162.0026 0002120  60.4215 299.6985 15.06395859 73169","RCS_SIZE":"LARGE","OBJECT_ID":"2020-035BE","PERIAPSIS":"545.758","OBJECT_TYPE":"PAYLOAD","NORAD_CAT_ID":"45709","MEAN_MOTION_DDOT":"0.0000000000000","GP_ID":"185055896","DECAY_DATE":null,"MEAN_ANOMALY":"299.6985","ELEMENT_SET_NO":"999","CENTER_NAME":"EARTH","ARG_OF_PERICENTER":"60.4215","ECCENTRICITY":"0.00021200","INCLINATION":"53.0530","MEAN_ELEMENT_THEORY":"SGP4","MEAN_MOTION":"15.06395859","TIME_SYSTEM":"UTC","PERIOD":"95.592","EPOCH":"2021-09-19T21:38:39.510816","LAUNCH_DATE":"2020-06-04","FILE":"3120378","REF_FRAME":"TEME","MEAN_MOTION_DOT":"0.00001067","APOAPSIS":"548.694"}];
